[{"OBJECT_NAME":"STARLINK-35931","OBJECT_ID":"2025-265D","EPOCH":"2026-03-09T22:59:56.213664","MEAN_MOTION":15.27591459,"ECCENTRICITY":0.00013912,"INCLINATION":42.9996,"RA_OF_ASC_NODE":276.4938,"ARG_OF_PERICENTER":249.1203,"MEAN_ANOMALY":110.95,"EPHEMERIS_TYPE":0,"CLASSIFICATION_TYPE":"U","NORAD_CAT_ID":66519,"ELEMENT_SET_NO":999,"REV_AT_EPOCH":1715,"BSTAR":0.00084454216,"MEAN_MOTION_DOT":0.00023059,"MEAN_MOTION_DDOT":0},{"OBJECT_NAME":"PUCP-SAT 1","OBJECT_ID":"2013-066AC","EPOCH":"2026-03-09T22:02:13.763904","MEAN_MOTION":15.29426022,"ECCENTRICITY":0.00136836,"INCLINATION":97.5787,"RA_OF_ASC_NODE":61.0032,"ARG_OF_PERICENTER":300.1183,"MEAN_ANOMALY":59.87,"EPHEMERIS_TYPE":0,"CLASSIFICATION_TYPE":"U","NORAD_CAT_ID":39442,"ELEMENT_SET_NO":999,"REV_AT_EPOCH":66907,"BSTAR":0.00088755185,"MEAN_MOTION_DOT":0.00025373,"MEAN_MOTION_DDOT":0}]
